{"type": "FeatureCollection", "features": [ {"type": "Feature", "properties": {"norad_id": 66849, "name": "STARLINK-36102", "group": "last-30-days", "lat": -41.1473832537996, "lon": -23.574558463921086, "alt_km": 407.6283626139366, "timestamp": "2025-12-25T07:41:08.449966+00:00", "meta": {"OBJECT_NAME": "STARLINK-36102", "OBJECT_ID": "2025-281B", "EPOCH": "2025-12-24T22:00:03.000096", "MEAN_MOTION": 15.55652529, "ECCENTRICITY": 0.0001193, "INCLINATION": 43.0007, "RA_OF_ASC_NODE": 48.4698, "ARG_OF_PERICENTER": 277.4327, "MEAN_ANOMALY": 266.4174, "EPHEMERIS_TYPE": 0, "CLASSIFICATION_TYPE": "U", "NORAD_CAT_ID": 66849, "ELEMENT_SET_NO": 999, "REV_AT_EPOCH": 334, "BSTAR": -0.032619302, "MEAN_MOTION_DOT": -0.02052218, "MEAN_MOTION_DDOT": 0}, "tle": {"line1": "1 66849U 25281B   25358.91670139 -.02052218  00000+0 -32619-1 0  9993", "line2": "2 66849  43.0007  48.4698 0001193 277.4327 266.4174 15.55652529  3349"}}, "geometry": {"type": "Point", "coordinates": [-23.574558463921086, -41.1473832537996]}}, {"type": "Feature", "properties": {"norad_id": 66850, "name": "STARLINK-36105", "group": "last-30-days", "lat": -40.667233322506576, "lon": -21.125244406995662, "alt_km": 407.58842896245733, "timestamp": "2025-12-25T07:41:08.449976+00:00", "meta": {"OBJECT_NAME": "STARLINK-36105", "OBJECT_ID": "2025-281C", "EPOCH": "2025-12-24T22:00:03.000096", "MEAN_MOTION": 15.55652216, "ECCENTRICITY": 0.00012487, "INCLINATION": 43.0004, "RA_OF_ASC_NODE": 48.4654, "ARG_OF_PERICENTER": 277.3041, "MEAN_ANOMALY": 268.4679, "EPHEMERIS_TYPE": 0, "CLASSIFICATION_TYPE": "U", "NORAD_CAT_ID": 66850, "ELEMENT_SET_NO": 999, "REV_AT_EPOCH": 334, "BSTAR": -0.032712034, "MEAN_MOTION_DOT": -0.02057436, "MEAN_MOTION_DDOT": 0}, "tle": {"line1": "1 66850U 25281C   25358.91670139 -.02057436  00000+0 -32712-1 0  9996", "line2": "2 66850  43.0004  48.4654 0001248 277.3041 268.4679 15.55652216  3348"}}, "geometry": {"type": "Point", "coordinates": [-21.125244406995662, -40.667233322506576]}}, {"type": "Feature", "properties": {"norad_id": 66851, "name": "STARLINK-36094", "group": "last-30-days", "lat": -40.13679895717014, "lon": -18.716833298689018, "alt_km": 407.61868016257085, "timestamp": "2025-12-25T07:41:08.449986+00:00", "meta": {"OBJECT_NAME": "STARLINK-36094", "OBJECT_ID": "2025-281D", "EPOCH": "2025-12-24T22:00:03.000096", "MEAN_MOTION": 15.55651178, "ECCENTRICITY": 0.00011645, "INCLINATION": 43.0002, "RA_OF_ASC_NODE": 48.4604, "ARG_OF_PERICENTER": 280.077, "MEAN_ANOMALY": 267.6114, "EPHEMERIS_TYPE": 0, "CLASSIFICATION_TYPE": "U", "NORAD_CAT_ID": 66851, "ELEMENT_SET_NO": 999, "REV_AT_EPOCH": 334, "BSTAR": -0.032680793, "MEAN_MOTION_DOT": -0.0205556, "MEAN_MOTION_DDOT": 0}, "tle": {"line1": "1 66851U 25281D   25358.91670139 -.02055560  00000+0 -32681-1 0  9998", "line2": "2 66851  43.0002  48.4604 0001164 280.0770 267.6114 15.55651178  3340"}}, "geometry": {"type": "Point", "coordinates": [-18.716833298689018, -40.13679895717014]}}, {"type": "Feature", "properties": {"norad_id": 66852, "name": "STARLINK-35992", "group": "last-30-days", "lat": -39.55596714460827, "lon": -16.34154126096604, "alt_km": 407.6280517568812, "timestamp": "2025-12-25T07:41:08.449998+00:00", "meta": {"OBJECT_NAME": "STARLINK-35992", "OBJECT_ID": "2025-281E", "EPOCH": "2025-12-24T22:00:03.000096", "MEAN_MOTION": 15.55648143, "ECCENTRICITY": 0.00011323, "INCLINATION": 43.0002, "RA_OF_ASC_NODE": 48.4563, "ARG_OF_PERICENTER": 275.7763, "MEAN_ANOMALY": 273.8294, "EPHEMERIS_TYPE": 0, "CLASSIFICATION_TYPE": "U", "NORAD_CAT_ID": 66852, "ELEMENT_SET_NO": 999, "REV_AT_EPOCH": 334, "BSTAR": -0.032560814, "MEAN_MOTION_DOT": -0.02048597, "MEAN_MOTION_DDOT": 0}, "tle": {"line1": "1 66852U 25281E   25358.91670139 -.02048597  00000+0 -32561-1 0  9998", "line2": "2 66852  43.0002  48.4563 0001132 275.7763 273.8294 15.55648143  3349"}}, "geometry": {"type": "Point", "coordinates": [-16.34154126096604, -39.55596714460827]}}, {"type": "Feature", "properties": {"norad_id": 66853, "name": "STARLINK-35986", "group": "last-30-days", "lat": -38.929156185960494, "lon": -14.01373492346803, "alt_km": 407.65071622239157, "timestamp": "2025-12-25T07:41:08.450008+00:00", "meta": {"OBJECT_NAME": "STARLINK-35986", "OBJECT_ID": "2025-281F", "EPOCH": "2025-12-24T22:00:03.000096", "MEAN_MOTION": 15.55651151, "ECCENTRICITY": 0.00010434, "INCLINATION": 43.0004, "RA_OF_ASC_NODE": 48.4512, "ARG_OF_PERICENTER": 280.5275, "MEAN_ANOMALY": 270.9935, "EPHEMERIS_TYPE": 0, "CLASSIFICATION_TYPE": "U", "NORAD_CAT_ID": 66853, "ELEMENT_SET_NO": 999, "REV_AT_EPOCH": 334, "BSTAR": -0.03264084, "MEAN_MOTION_DOT": -0.02053241, "MEAN_MOTION_DDOT": 0}, "tle": {"line1": "1 66853U 25281F   25358.91670139 -.02053241  00000+0 -32641-1 0  9990", "line2": "2 66853  43.0004  48.4512 0001043 280.5275 270.9935 15.55651151  3342"}}, "geometry": {"type": "Point", "coordinates": [-14.01373492346803, -38.929156185960494]}}, {"type": "Feature", "properties": {"norad_id": 66854, "name": "STARLINK-36087", "group": "last-30-days", "lat": -38.25596610099783, "lon": -11.727632371490639, "alt_km": 407.56525354139103, "timestamp": "2025-12-25T07:41:08.450018+00:00", "meta": {"OBJECT_NAME": "STARLINK-36087", "OBJECT_ID": "2025-281G", "EPOCH": "2025-12-24T22:00:03.000096", "MEAN_MOTION": 15.55647233, "ECCENTRICITY": 0.00011123, "INCLINATION": 43.0001, "RA_OF_ASC_NODE": 48.4458, "ARG_OF_PERICENTER": 282.7372, "MEAN_ANOMALY": 270.7016, "EPHEMERIS_TYPE": 0, "CLASSIFICATION_TYPE": "U", "NORAD_CAT_ID": 66854, "ELEMENT_SET_NO": 999, "REV_AT_EPOCH": 334, "BSTAR": -0.032542029, "MEAN_MOTION_DOT": -0.02047467, "MEAN_MOTION_DDOT": 0}, "tle": {"line1": "1 66854U 25281G   25358.91670139 -.02047467  00000+0 -32542-1 0  9994", "line2": "2 66854  43.0001  48.4458 0001112 282.7372 270.7016 15.55647233  3342"}}, "geometry": {"type": "Point", "coordinates": [-11.727632371490639, -38.25596610099783]}}, {"type": "Feature", "properties": {"norad_id": 66855, "name": "STARLINK-36090", "group": "last-30-days", "lat": -37.53887924300133, "lon": -9.481919422967302, "alt_km": 407.6162251988426, "timestamp": "2025-12-25T07:41:08.450031+00:00", "meta": {"OBJECT_NAME": "STARLINK-36090", "OBJECT_ID": "2025-281H", "EPOCH": "2025-12-24T22:00:03.000096", "MEAN_MOTION": 15.55647214, "ECCENTRICITY": 9.756e-05, "INCLINATION": 43.0004, "RA_OF_ASC_NODE": 48.4411, "ARG_OF_PERICENTER": 280.5909, "MEAN_ANOMALY": 274.7667, "EPHEMERIS_TYPE": 0, "CLASSIFICATION_TYPE": "U", "NORAD_CAT_ID": 66855, "ELEMENT_SET_NO": 999, "REV_AT_EPOCH": 322, "BSTAR": -0.032534779, "MEAN_MOTION_DOT": -0.02046976, "MEAN_MOTION_DDOT": 0}, "tle": {"line1": "1 66855U 25281H   25358.91670139 -.02046976  00000+0 -32535-1 0  9991", "line2": "2 66855  43.0004  48.4411 0000975 280.5909 274.7667 15.55647214  3225"}}, "geometry": {"type": "Point", "coordinates": [-9.481919422967302, -37.53887924300133]}}, {"type": "Feature", "properties": {"norad_id": 66856, "name": "STARLINK-36072", "group": "last-30-days", "lat": -36.77934942154474, "lon": -7.279316232450379, "alt_km": 407.6343927384114, "timestamp": "2025-12-25T07:41:08.450041+00:00", "meta": {"OBJECT_NAME": "STARLINK-36072", "OBJECT_ID": "2025-281J", "EPOCH": "2025-12-24T22:00:03.000096", "MEAN_MOTION": 15.55651637, "ECCENTRICITY": 9.298e-05, "INCLINATION": 43.0006, "RA_OF_ASC_NODE": 48.4361, "ARG_OF_PERICENTER": 276.789, "MEAN_ANOMALY": 280.4849, "EPHEMERIS_TYPE": 0, "CLASSIFICATION_TYPE": "U", "NORAD_CAT_ID": 66856, "ELEMENT_SET_NO": 999, "REV_AT_EPOCH": 334, "BSTAR": -0.032664773, "MEAN_MOTION_DOT": -0.02054549, "MEAN_MOTION_DDOT": 0}, "tle": {"line1": "1 66856U 25281J   25358.91670139 -.02054549  00000+0 -32665-1 0  9991", "line2": "2 66856  43.0006  48.4361 0000929 276.7890 280.4849 15.55651637  3340"}}, "geometry": {"type": "Point", "coordinates": [-7.279316232450379, -36.77934942154474]}}, {"type": "Feature", "properties": {"norad_id": 66857, "name": "STARLINK-36083", "group": "last-30-days", "lat": -35.979776432847274, "lon": -5.121244883712447, "alt_km": 407.56763292149844, "timestamp": "2025-12-25T07:41:08.450053+00:00", "meta": {"OBJECT_NAME": "STARLINK-36083", "OBJECT_ID": "2025-281K", "EPOCH": "2025-12-24T22:00:03.000096", "MEAN_MOTION": 15.55650103, "ECCENTRICITY": 9.912e-05, "INCLINATION": 43.0007, "RA_OF_ASC_NODE": 48.4311, "ARG_OF_PERICENTER": 275.6752, "MEAN_ANOMALY": 283.5174, "EPHEMERIS_TYPE": 0, "CLASSIFICATION_TYPE": "U", "NORAD_CAT_ID": 66857, "ELEMENT_SET_NO": 999, "REV_AT_EPOCH": 334, "BSTAR": -0.032636349, "MEAN_MOTION_DOT": -0.02052885, "MEAN_MOTION_DDOT": 0}, "tle": {"line1": "1 66857U 25281K   25358.91670139 -.02052885  00000+0 -32636-1 0  9991", "line2": "2 66857  43.0007  48.4311 0000991 275.6752 283.5174 15.55650103  3343"}}, "geometry": {"type": "Point", "coordinates": [-5.121244883712447, -35.979776432847274]}}, {"type": "Feature", "properties": {"norad_id": 66858, "name": "STARLINK-35118", "group": "last-30-days", "lat": -35.14344333612157, "lon": -3.0110495473335424, "alt_km": 407.3556940461558, "timestamp": "2025-12-25T07:41:08.450063+00:00", "meta": {"OBJECT_NAME": "STARLINK-35118", "OBJECT_ID": "2025-281L", "EPOCH": "2025-12-24T22:00:03.000096", "MEAN_MOTION": 15.5565077, "ECCENTRICITY": 0.00012698, "INCLINATION": 43.0007, "RA_OF_ASC_NODE": 48.426, "ARG_OF_PERICENTER": 278.0295, "MEAN_ANOMALY": 283.0717, "EPHEMERIS_TYPE": 0, "CLASSIFICATION_TYPE": "U", "NORAD_CAT_ID": 66858, "ELEMENT_SET_NO": 999, "REV_AT_EPOCH": 313, "BSTAR": -0.032545198, "MEAN_MOTION_DOT": -0.02047984, "MEAN_MOTION_DDOT": 0}, "tle": {"line1": "1 66858U 25281L   25358.91670139 -.02047984  00000+0 -32545-1 0  9995", "line2": "2 66858  43.0007  48.4260 0001269 278.0295 283.0717 15.55650770  3130"}}, "geometry": {"type": "Point", "coordinates": [-3.0110495473335424, -35.14344333612157]}}]}